LEMUR-2-LAILA           
1 66776U 25276DQ  26157.17006823  .00007688  00000+0  34820-3 0  9990
2 66776  97.4172 231.2216 0001477 147.6331 212.4995 15.21149531 28773
LEMUR-2-CELIJO-SB-PK    
1 66781U 25276DW  26156.42856215  .00006538  00000+0  53215-3 0  9993
2 66781  97.5284 227.5913 0008713 161.2327 198.9219 14.99826128 20860
LEMUR-2-FINNIAN         
1 66782U 25276DX  26156.94225052  .00009124  00000+0  73281-3 0  9999
2 66782  97.5251 228.2942 0008380 122.8932 237.3100 15.00233719 18315
LEMUR-2-STARLIGHT       
1 66783U 25276DY  26156.95541474  .00008192  00000+0  68018-3 0  9996
2 66783  97.5272 227.9767 0015246 160.5333 199.6475 14.98922038 28516
LEMUR-2-TARTIFLETTE     
1 66784U 25276DZ  26156.95409467  .00010238  00000+0  84855-3 0  9993
2 66784  97.5273 227.9811 0013842 166.6574 193.5018 14.98941011 28510
LEMUR-2-VUKASIN         
1 66785U 25276EA  26156.95744605  .00008767  00000+0  70451-3 0  9991
2 66785  97.5301 228.2542 0006203 150.5566 209.6008 15.00238837 28465
LEMUR-2-HOTSPUR-TOM     
1 66786U 25276EB  26156.94576797  .00009435  00000+0  78469-3 0  9996
2 66786  97.5240 227.9586 0015117 162.4124 197.7626 14.98816357 28444
LEMUR-2-MYRA            
1 66787U 25276EC  26156.45424146  .00006546  00000+0  52847-3 0  9995
2 66787  97.5221 227.7218 0015186 180.5755 179.5454 15.00080983 28451
LEMUR-2 FIKRETDENGIZ    
1 67363U 26004A   26154.55319882  .00004718  00000+0  51674-3 0  9991
2 67363  97.8015 153.3224 0008838 173.3369 186.7966 14.88221873 21253
TWILIGHT-1 OBJECT B     
1 67364U 26004B   26156.45550541  .00002006  00000+0  22621-3 0  9990
2 67364  97.8060 155.2148 0009119 158.7603 201.3994 14.87660452 21547
LEMUR-2-MARIO-SOUSA     
1 67365U 26004C   26156.82422164  .00005803  00000+0  63098-3 0  9992
2 67365  97.7995 155.5546 0008663 166.5581 193.5868 14.88423624 21602
LEMUR-2-SONNENBLUME     
1 67367U 26004E   26156.48505555  .00003414  00000+0  37530-3 0  9990
2 67367  97.7984 155.2095 0008128 169.9945 190.1435 14.88255227 21554
LEMUR-2-WOBLER          
1 67368U 26004F   26156.88340183  .00005622  00000+0  61119-3 0  9992
2 67368  97.8042 155.7125 0008637 157.6666 202.4929 14.88439297 21612
LEMUR-2-GRAM-E-SUE      
1 67370U 26004H   26156.80657461  .00003458  00000+0  37861-3 0  9999
2 67370  97.7973 155.5402 0007197 169.0553 191.0822 14.88420895 21603
LEMUR-2-KATIE           
1 67387U 26004AA  26156.80580465  .00006159  00000+0  64459-3 0  9990
2 67387  97.8038 155.9621 0004567 116.2885 243.8803 14.89967772 21618
LEMUR-2-HCS-BAZUS       
1 67388U 26004AB  26156.80490609  .00006896  00000+0  72109-3 0  9990
2 67388  97.8024 155.9437 0004241 111.8230 248.3439 14.89961167 21610
